CCSDS_OMM_VERS = 2.0
CREATION_DATE  = 
ORIGINATOR     = 

OBJECT_NAME    = STARLINK-36099
OBJECT_ID      = 2025-278G
CENTER_NAME    = EARTH
REF_FRAME      = TEME
TIME_SYSTEM    = UTC
MEAN_ELEMENT_THEORY = SGP/SGP4

EPOCH          = 2025-12-22T14:00:01.999872
MEAN_MOTION    = 15.53191708
ECCENTRICITY   = .00015308
INCLINATION    = 42.9988
RA_OF_ASC_NODE = 192.6412
ARG_OF_PERICENTER = 257.3943
MEAN_ANOMALY   = 123.2806

EPHEMERIS_TYPE = 0
CLASSIFICATION_TYPE = U
NORAD_CAT_ID   = 66797
ELEMENT_SET_NO = 999
REV_AT_EPOCH   = 459
BSTAR          = -.30126869E-1
MEAN_MOTION_DOT = -.1732111E-1
MEAN_MOTION_DDOT = 0

CCSDS_OMM_VERS = 2.0
CREATION_DATE  = 
ORIGINATOR     = 

OBJECT_NAME    = STARLINK-36041
OBJECT_ID      = 2025-278H
CENTER_NAME    = EARTH
REF_FRAME      = TEME
TIME_SYSTEM    = UTC
MEAN_ELEMENT_THEORY = SGP/SGP4

EPOCH          = 2025-12-22T14:00:01.999872
MEAN_MOTION    = 15.53190518
ECCENTRICITY   = .00015094
INCLINATION    = 42.9991
RA_OF_ASC_NODE = 192.6359
ARG_OF_PERICENTER = 256.1470
MEAN_ANOMALY   = 126.4481

EPHEMERIS_TYPE = 0
CLASSIFICATION_TYPE = U
NORAD_CAT_ID   = 66798
ELEMENT_SET_NO = 999
REV_AT_EPOCH   = 438
BSTAR          = -.30138057E-1
MEAN_MOTION_DOT = -.1732606E-1
MEAN_MOTION_DDOT = 0

CCSDS_OMM_VERS = 2.0
CREATION_DATE  = 
ORIGINATOR     = 

OBJECT_NAME    = STARLINK-36044
OBJECT_ID      = 2025-278J
CENTER_NAME    = EARTH
REF_FRAME      = TEME
TIME_SYSTEM    = UTC
MEAN_ELEMENT_THEORY = SGP/SGP4

EPOCH          = 2025-12-22T14:00:01.999872
MEAN_MOTION    = 15.53190529
ECCENTRICITY   = .00015166
INCLINATION    = 42.9990
RA_OF_ASC_NODE = 192.6316
ARG_OF_PERICENTER = 252.4280
MEAN_ANOMALY   = 132.0808

EPHEMERIS_TYPE = 0
CLASSIFICATION_TYPE = U
NORAD_CAT_ID   = 66799
ELEMENT_SET_NO = 999
REV_AT_EPOCH   = 454
BSTAR          = -.30063081E-1
MEAN_MOTION_DOT = -.1728762E-1
MEAN_MOTION_DDOT = 0

CCSDS_OMM_VERS = 2.0
CREATION_DATE  = 
ORIGINATOR     = 

OBJECT_NAME    = STARLINK-35996
OBJECT_ID      = 2025-278K
CENTER_NAME    = EARTH
REF_FRAME      = TEME
TIME_SYSTEM    = UTC
MEAN_ELEMENT_THEORY = SGP/SGP4

EPOCH          = 2025-12-22T14:00:01.999872
MEAN_MOTION    = 15.53194135
ECCENTRICITY   = .00015049
INCLINATION    = 42.9989
RA_OF_ASC_NODE = 192.6218
ARG_OF_PERICENTER = 262.0605
MEAN_ANOMALY   = 126.2854

EPHEMERIS_TYPE = 0
CLASSIFICATION_TYPE = U
NORAD_CAT_ID   = 66800
ELEMENT_SET_NO = 999
REV_AT_EPOCH   = 433
BSTAR          = -.30273143E-1
MEAN_MOTION_DOT = -.1739737E-1
MEAN_MOTION_DDOT = 0

CCSDS_OMM_VERS = 2.0
CREATION_DATE  = 
ORIGINATOR     = 

OBJECT_NAME    = STARLINK-36080
OBJECT_ID      = 2025-278L
CENTER_NAME    = EARTH
REF_FRAME      = TEME
TIME_SYSTEM    = UTC
MEAN_ELEMENT_THEORY = SGP/SGP4

EPOCH          = 2025-12-22T14:00:01.999872
MEAN_MOTION    = 15.53189792
ECCENTRICITY   = .00015792
INCLINATION    = 42.9990
RA_OF_ASC_NODE = 192.5967
ARG_OF_PERICENTER = 259.9276
MEAN_ANOMALY   = 138.0031

EPHEMERIS_TYPE = 0
CLASSIFICATION_TYPE = U
NORAD_CAT_ID   = 66801
ELEMENT_SET_NO = 999
REV_AT_EPOCH   = 454
BSTAR          = -.30070444E-1
MEAN_MOTION_DOT = -.1729132E-1
MEAN_MOTION_DDOT = 0

CCSDS_OMM_VERS = 2.0
CREATION_DATE  = 
ORIGINATOR     = 

OBJECT_NAME    = STARLINK-35604
OBJECT_ID      = 2025-278M
CENTER_NAME    = EARTH
REF_FRAME      = TEME
TIME_SYSTEM    = UTC
MEAN_ELEMENT_THEORY = SGP/SGP4

EPOCH          = 2025-12-22T14:00:01.999872
MEAN_MOTION    = 15.53196155
ECCENTRICITY   = .00016581
INCLINATION    = 42.9990
RA_OF_ASC_NODE = 192.6262
ARG_OF_PERICENTER = 255.2761
MEAN_ANOMALY   = 131.1488

EPHEMERIS_TYPE = 0
CLASSIFICATION_TYPE = U
NORAD_CAT_ID   = 66802
ELEMENT_SET_NO = 999
REV_AT_EPOCH   = 454
BSTAR          = -.30275986E-1
MEAN_MOTION_DOT = -.174008E-1
MEAN_MOTION_DDOT = 0

CCSDS_OMM_VERS = 2.0
CREATION_DATE  = 
ORIGINATOR     = 

OBJECT_NAME    = STARLINK-35565
OBJECT_ID      = 2025-278N
CENTER_NAME    = EARTH
REF_FRAME      = TEME
TIME_SYSTEM    = UTC
MEAN_ELEMENT_THEORY = SGP/SGP4

EPOCH          = 2025-12-22T14:00:01.999872
MEAN_MOTION    = 15.53193412
ECCENTRICITY   = .00015969
INCLINATION    = 42.9990
RA_OF_ASC_NODE = 192.6166
ARG_OF_PERICENTER = 254.8915
MEAN_ANOMALY   = 135.3701

EPHEMERIS_TYPE = 0
CLASSIFICATION_TYPE = U
NORAD_CAT_ID   = 66803
ELEMENT_SET_NO = 999
REV_AT_EPOCH   = 462
BSTAR          = -.30217133E-1
MEAN_MOTION_DOT = -.1736873E-1
MEAN_MOTION_DDOT = 0

CCSDS_OMM_VERS = 2.0
CREATION_DATE  = 
ORIGINATOR     = 

OBJECT_NAME    = STARLINK-36038
OBJECT_ID      = 2025-278P
CENTER_NAME    = EARTH
REF_FRAME      = TEME
TIME_SYSTEM    = UTC
MEAN_ELEMENT_THEORY = SGP/SGP4

EPOCH          = 2025-12-22T14:00:01.999872
MEAN_MOTION    = 15.53190271
ECCENTRICITY   = .00015627
INCLINATION    = 42.9989
RA_OF_ASC_NODE = 192.6121
ARG_OF_PERICENTER = 252.3503
MEAN_ANOMALY   = 139.8279

EPHEMERIS_TYPE = 0
CLASSIFICATION_TYPE = U
NORAD_CAT_ID   = 66804
ELEMENT_SET_NO = 999
REV_AT_EPOCH   = 454
BSTAR          = -.30114269E-1
MEAN_MOTION_DOT = -.17314E-1
MEAN_MOTION_DDOT = 0

CCSDS_OMM_VERS = 2.0
CREATION_DATE  = 
ORIGINATOR     = 

OBJECT_NAME    = STARLINK-36049
OBJECT_ID      = 2025-278Q
CENTER_NAME    = EARTH
REF_FRAME      = TEME
TIME_SYSTEM    = UTC
MEAN_ELEMENT_THEORY = SGP/SGP4

EPOCH          = 2025-12-22T14:00:01.999872
MEAN_MOTION    = 15.53194495
ECCENTRICITY   = .00017055
INCLINATION    = 42.9990
RA_OF_ASC_NODE = 192.6014
ARG_OF_PERICENTER = 257.6501
MEAN_ANOMALY   = 138.3618

EPHEMERIS_TYPE = 0
CLASSIFICATION_TYPE = U
NORAD_CAT_ID   = 66805
ELEMENT_SET_NO = 999
REV_AT_EPOCH   = 454
BSTAR          = -.30219682E-1
MEAN_MOTION_DOT = -.1737124E-1
MEAN_MOTION_DDOT = 0

CCSDS_OMM_VERS = 2.0
CREATION_DATE  = 
ORIGINATOR     = 

OBJECT_NAME    = STARLINK-36069
OBJECT_ID      = 2025-278R
CENTER_NAME    = EARTH
REF_FRAME      = TEME
TIME_SYSTEM    = UTC
MEAN_ELEMENT_THEORY = SGP/SGP4

EPOCH          = 2025-12-22T14:00:01.999872
MEAN_MOTION    = 15.53193618
ECCENTRICITY   = .00016574
INCLINATION    = 42.9990
RA_OF_ASC_NODE = 192.6066
ARG_OF_PERICENTER = 260.7510
MEAN_ANOMALY   = 133.3438

EPHEMERIS_TYPE = 0
CLASSIFICATION_TYPE = U
NORAD_CAT_ID   = 66806
ELEMENT_SET_NO = 999
REV_AT_EPOCH   = 433
BSTAR          = -.30184707E-1
MEAN_MOTION_DOT = -.1735254E-1
MEAN_MOTION_DDOT = 0

CCSDS_OMM_VERS = 2.0
CREATION_DATE  = 
ORIGINATOR     = 

OBJECT_NAME    = STARLINK-36000
OBJECT_ID      = 2025-278S
CENTER_NAME    = EARTH
REF_FRAME      = TEME
TIME_SYSTEM    = UTC
MEAN_ELEMENT_THEORY = SGP/SGP4

EPOCH          = 2025-12-22T14:00:01.999872
MEAN_MOTION    = 15.53192828
ECCENTRICITY   = .00015075
INCLINATION    = 42.9989
RA_OF_ASC_NODE = 192.5928
ARG_OF_PERICENTER = 255.8014
MEAN_ANOMALY   = 144.0430

EPHEMERIS_TYPE = 0
CLASSIFICATION_TYPE = U
NORAD_CAT_ID   = 66807
ELEMENT_SET_NO = 999
REV_AT_EPOCH   = 460
BSTAR          = -.30185821E-1
MEAN_MOTION_DOT = -.1735186E-1
MEAN_MOTION_DDOT = 0

CCSDS_OMM_VERS = 2.0
CREATION_DATE  = 
ORIGINATOR     = 

OBJECT_NAME    = STARLINK-36071
OBJECT_ID      = 2025-278T
CENTER_NAME    = EARTH
REF_FRAME      = TEME
TIME_SYSTEM    = UTC
MEAN_ELEMENT_THEORY = SGP/SGP4

EPOCH          = 2025-12-22T14:00:01.999872
MEAN_MOTION    = 15.53193955
ECCENTRICITY   = .00015278
INCLINATION    = 42.9989
RA_OF_ASC_NODE = 192.5881
ARG_OF_PERICENTER = 256.8911
MEAN_ANOMALY   = 144.8687

EPHEMERIS_TYPE = 0
CLASSIFICATION_TYPE = U
NORAD_CAT_ID   = 66808
ELEMENT_SET_NO = 999
REV_AT_EPOCH   = 454
BSTAR          = -.30186535E-1
MEAN_MOTION_DOT = -.1735298E-1
MEAN_MOTION_DDOT = 0

