STARLINK-36099          
1 66797U 25278G   25356.58335648 -.01732111  00000+0 -30127-1 0  9993
2 66797  42.9988 192.6412 0001530 257.3943 123.2806 15.53191708  4594
STARLINK-36041          
1 66798U 25278H   25356.58335648 -.01732606  00000+0 -30138-1 0  9995
2 66798  42.9991 192.6359 0001509 256.1470 126.4481 15.53190518  4386
STARLINK-36044          
1 66799U 25278J   25356.58335648 -.01728762  00000+0 -30063-1 0  9991
2 66799  42.9990 192.6316 0001516 252.4280 132.0808 15.53190529  4541
STARLINK-35996          
1 66800U 25278K   25356.58335648 -.01739737  00000+0 -30273-1 0  9991
2 66800  42.9989 192.6218 0001504 262.0605 126.2854 15.53194135  4338
STARLINK-36080          
1 66801U 25278L   25356.58335648 -.01729132  00000+0 -30070-1 0  9995
2 66801  42.9990 192.5967 0001579 259.9276 138.0031 15.53189792  4546
STARLINK-35604          
1 66802U 25278M   25356.58335648 -.01740080  00000+0 -30276-1 0  9999
2 66802  42.9990 192.6262 0001658 255.2761 131.1488 15.53196155  4543
STARLINK-35565          
1 66803U 25278N   25356.58335648 -.01736873  00000+0 -30217-1 0  9990
2 66803  42.9990 192.6166 0001596 254.8915 135.3701 15.53193412  4620
STARLINK-36038          
1 66804U 25278P   25356.58335648 -.01731400  00000+0 -30114-1 0  9998
2 66804  42.9989 192.6121 0001562 252.3503 139.8279 15.53190271  4549
STARLINK-36049          
1 66805U 25278Q   25356.58335648 -.01737124  00000+0 -30220-1 0  9996
2 66805  42.9990 192.6014 0001705 257.6501 138.3618 15.53194495  4541
STARLINK-36069          
1 66806U 25278R   25356.58335648 -.01735254  00000+0 -30185-1 0  9999
2 66806  42.9990 192.6066 0001657 260.7510 133.3438 15.53193618  4338
STARLINK-36000          
1 66807U 25278S   25356.58335648 -.01735186  00000+0 -30186-1 0  9995
2 66807  42.9989 192.5928 0001507 255.8014 144.0430 15.53192828  4604
STARLINK-36071          
1 66808U 25278T   25356.58335648 -.01735298  00000+0 -30187-1 0  9991
2 66808  42.9989 192.5881 0001527 256.8911 144.8687 15.53193955  4549
